C/2022 L2 (ATLAS),h,03/12.2744/2024,129.3146,39.2412,199.9234,1.001494,2.692675,2000,6.5,4.0
# From MPEC 2023-XP6
P/2022 L3 (ATLAS),e,21.5430,29.8059,10.3513,6.501992,0.0594476,0.62773825,24.3741,12/14.0/2023,2000,g 16.5,4.0
# From MPEC 2022-N37
C/2022 L4 (PANSTARRS),e,141.2428,66.0618,125.3314,284.6447,0.0002052,0.98941031,0.0000,12/08.8862/2021,2000,g 14.0,4.0
# From MPEC 2023-FK0
C/2022 N1 (Attard-Maury),e,164.7364,301.8714,41.0598,36.99577,0.0043800,0.95996929,2.0145,12/14.0/2023,2000,g 16.9,4.0
# From MPEC 2023-XP6
C/2022 N2 (PANSTARRS),h,07/31.5494/2025,5.5024,319.7395,75.3551,1.003823,3.826415,2000,6.0,4.0
# From MPEC 2023-R20
C/2022 O1 (ATLAS),h,02/15.8535/2022,71.0411,49.9172,268.9191,1.003440,7.431780,2000,6.0,4.0
# From MPEC 2023-HD1
P/2022 O2 (PANSTARRS),e,9.4241,330.4896,48.6329,6.306017,0.0622403,0.72137443,21.2210,12/14.0/2023,2000,g 16.2,4.0
# From MPEC 2023-N01
C/2022 P1 (NEOWISE),e,154.6057,205.0825,249.9436,18.47508,0.0124115,0.91365902,4.7223,12/14.0/2023,2000,g 13.0,4.0
# From MPEC 2023-XP6
P/2022 P2 (ZTF),e,12.4401,291.2122,137.6561,4.487874,0.1036676,0.55817156,54.0190,12/14.0/2023,2000,g 12.5,4.0
# From MPEC 2023-HD1
C/2022 P3 (ZTF),e,59.5164,72.2229,0.1305,249.7244,0.0002498,0.98973985,0.0000,07/27.4228/2022,2000,g  9.0,4.0
# From MPEC 2023-R20
C/2022 Q2 (ATLAS),e,151.4838,352.9484,44.0726,32.82776,0.0052401,0.94991659,1.6579,12/14.0/2023,2000,g 13.0,4.0
# From MPEC 2023-XP6
C/2022 QE78 (ATLAS),h,09/10.1804/2025,36.5482,119.9460,0.3559,1.003594,5.481150,2000,5.0,4.0
# From MPEC 2023-W26
P/2022 R1 (PANSTARRS),e,7.3802,176.0363,222.0807,7.235583,0.0506400,0.50615556,3.3751,12/14.0/2023,2000,g 11.5,4.0
# From MPEC 2022-Y15
C/2022 R2 (ATLAS),e,52.9054,60.4105,78.3521,419.2856,0.0001148,0.99849253,0.0000,10/25.2532/2022,2000,g 17.0,4.0
# From MPEC 2023-XP6
C/2022 R3 (Leonard),h,03/05.4611/2023,43.0826,8.2411,72.8822,1.001062,5.129276,2000,9.0,4.0
# From MPEC 2022-X67
P/2022 R4 (PANSTARRS),e,21.0205,176.6273,197.4574,3.836767,0.1311463,0.49006010,68.4115,12/14.0/2023,2000,g 16.5,4.0
# From MPEC 2022-WQ9
P/2022 R5 (PANSTARRS),e,15.2944,115.0505,240.5639,3.068764,0.1833407,0.19527108,103.7219,12/14.0/2023,2000,g 16.0,4.0
# From MPEC 2023-XP6
C/2022 R6 (PANSTARRS),h,08/25.5391/2025,57.0217,150.7729,319.8587,1.004320,6.567132,2000,5.0,4.0
# From MPEC 2023-HD1
P/2022 S1 (PANSTARRS),e,34.5794,136.0929,262.7870,6.408342,0.0607555,0.50809641,29.2689,12/14.0/2023,2000,g 15.1,4.0
# From MPEC 2022-VC5
C/2022 S3 (PANSTARRS),h,01/21.6931/2023,78.5408,157.3166,267.9652,1.000399,0.838334,2000,17.0,4.0
# From MPEC 2023-XP6
C/2022 S4 (Lemmon),e,101.2216,220.1749,268.5317,1389,0.0000190,0.99801095,0.0000,07/18.6591/2024,2000,g  8.0,4.0
# From MPEC 2023-HD1
C/2022 S5 (PANSTARRS),e,136.5325,214.8592,232.7975,20.44938,0.0106582,0.89343688,4.0659,12/14.0/2023,2000,g 16.3,4.0
# From MPEC 2023-M14
C/2022 T1 (Lemmon),e,22.5437,236.9173,324.3123,15490,0.0000005,0.99977760,0.0000,02/17.4902/2024,2000,g 12.0,4.0
# From MPEC 2023-XP6
C/2022 U1 (Leonard),e,128.1491,72.5247,78.5718,7986,0.0000014,0.99947384,0.0000,03/25.7978/2024,2000,g  8.5,4.0
# From MPEC 2023-VM5
C/2022 U2 (ATLAS),e,48.2456,304.4635,147.9244,96.50991,0.0010396,0.98623877,0.0000,01/14.2351/2023,2000,g 16.0,4.0
# From MPEC 2023-XP6
C/2022 U3 (Bok),h,07/28.0559/2024,33.6380,272.7886,189.0467,1.003197,4.826896,2000,7.5,4.0
# From MPEC 2023-W26
C/2022 U4 (Bok),e,52.0359,132.9218,89.0072,3127,0.0000056,0.99907315,0.0000,08/03.6635/2023,2000,g 10.5,4.0
# From MPEC 2023-XP6
C/2022 V2 (Lemmon),e,98.9041,332.8709,168.9493,36.84800,0.0044064,0.94399754,0.1854,12/14.0/2023,2000,g 12.0,4.0
# From MPEC 2023-CD7
P/2022 W1 (Rankin),e,13.4660,38.8156,17.8334,6.969391,0.0535688,0.51664815,24.3240,12/14.0/2023,2000,g 12.5,4.0
# From MPEC 2023-XP6
C/2022 W2 (ATLAS),e,63.5257,320.4516,123.2720,342.6034,0.0001554,0.99088463,0.0000,03/08.7442/2023,2000,g 11.5,4.0
# From MPEC 2023-W26
C/2022 W3 (Leonard),e,103.5594,132.2696,116.5249,280.6519,0.0002096,0.99501961,0.0000,06/22.7776/2023,2000,g 13.0,4.0
# From MPEC 2023-M14
C/2022 Y1 (Hogan),e,18.8557,285.9047,174.7729,12.57372,0.0221059,0.76474585,8.4369,12/14.0/2023,2000,g  9.0,4.0
# From MPEC 2023-TM6
C/2022 Y2 (Lemmon),e,165.9023,216.3533,105.5905,19.87263,0.0111255,0.87194668,2.9610,12/14.0/2023,2000,g 13.5,4.0
# From MPEC 2023-KD6
C/2023 A1 (Leonard),e,94.7392,318.3042,159.2480,225.8245,0.0002904,0.99187536,0.0000,03/18.7156/2023,2000,g 14.5,4.0
# From MPEC 2023-J95
C/2023 A2 (SWAN),e,94.7104,94.4779,142.5576,452.4067,0.0001024,0.99790650,0.0000,01/20.3734/2023,2000,g 13.5,4.0
# From MPEC 2023-XP6
C/2023 A3 (Tsuchinshan-ATLAS),h,09/27.7418/2024,139.1158,21.5585,308.4867,1.000127,0.391469,2000,5.0,4.0
# From MPEC 2023-KD6
P/2023 B1 (PANSTARRS),e,14.5882,78.5697,81.3245,7.055014,0.0525966,0.12959501,12.0939,12/14.0/2023,2000,g  5.5,4.0
# From MPEC 2023-XP6
C/2023 B2 (ATLAS),e,40.7716,218.1206,317.3868,600.9943,0.0000669,0.99710007,0.0000,03/10.4864/2023,2000,g 14.5,4.0
# From MPEC 2023-F81
P/2023 B3 (PANSTARRS),e,9.1609,154.0052,240.0917,4.546203,0.1016789,0.12315359,121.4982,12/14.0/2023,2000,g 10.5,4.0
# From MPEC 2023-OA6
C/2023 C2 (ATLAS),e,48.3163,301.0135,357.4573,3222,0.0000054,0.99926493,0.0000,11/16.8269/2024,2000,g  7.0,4.0
# From MPEC 2023-XP6
C/2023 E1 (ATLAS),e,38.3108,164.5718,105.9054,19.35749,0.0115726,0.94696029,1.9198,12/14.0/2023,2000,g 15.5,4.0
# From MPEC 2023-N01
C/2023 F1 (PANSTARRS),e,131.7525,25.2479,216.6558,257.8487,0.0002380,0.99337520,0.0000,06/28.3493/2023,2000,g 16.0,4.0
# From MPEC 2023-T65
C/2023 F3 (ATLAS),h,02/02.7964/2025,145.9584,109.4480,265.5411,1.004271,5.190206,2000,6.0,4.0
# From MPEC 2023-M14
C/2023 H1 (PANSTARRS),e,21.7778,292.6396,333.8429,1552,0.0000161,0.99713807,0.0000,11/28.3935/2024,2000,g 12.6,4.0
# From MPEC 2023-XP6
C/2023 H2 (Lemmon),e,113.7536,217.0447,150.6487,247.4307,0.0002532,0.99638524,0.0000,10/29.1897/2023,2000,g 14.0,4.0
# From MPEC 2023-R20
C/2023 H3 (PANSTARRS),e,2.4894,55.1001,193.3283,13.63049,0.0195856,0.61610040,358.6873,12/14.0/2023,2000,g 10.0,4.0
# From MPEC 2023-SQ0
A/2023 H4,e,76.6187,230.8135,64.8990,139.9604,0.0005952,0.98485764,0.0000,08/08.8050/2023,2000,g 18.0,22.0
# From MPEC 2023-XP6
C/2023 H5 (Lemmon),h,06/30.1353/2025,97.8740,159.4825,60.0782,1.000430,4.312944,2000,7.0,4.0
# From MPEC 2023-VM5
C/2023 K1 (ATLAS),e,137.9986,223.7065,337.4686,731.5317,0.0000498,0.99721202,0.0000,09/07.7408/2023,2000,g 13.0,4.0
# From MPEC 2023-N01
P/2023 M1 (PANSTARRS),e,12.2883,216.8632,79.6865,6.848417,0.0549944,0.58734310,359.9785,12/14.0/2023,2000,g 13.5,4.0
# From MPEC 2023-XP6
P/2023 M2 (PANSTARRS),e,19.7253,83.2661,243.0221,5.563362,0.0751101,0.36938460,10.6423,12/14.0/2023,2000,g 12.5,4.0
# From MPEC 2023-XP6
P/2023 M4 (ATLAS),e,7.5927,296.2966,320.6795,5.452116,0.0774206,0.27925347,47.0730,12/14.0/2023,2000,g  7.5,4.0
# From MPEC 2023-XP6
C/2023 P1 (Nishimura),e,132.4768,66.8350,116.2991,57.13653,0.0022821,0.99605983,0.0000,09/17.6421/2023,2000,g 10.0,4.0
# From MPEC 2023-XP6
C/2023 Q1 (PANSTARRS),h,12/01.3099/2024,36.6715,7.1606,84.4318,1.004570,2.575020,2000,10.0,4.0
# From MPEC 2023-XP6
C/2023 Q2 (PANSTARRS),e,104.0556,92.6809,171.7259,340.9791,0.0001565,0.99058779,0.0000,06/24.0896/2024,2000,g 11.5,4.0
# From MPEC 2023-XP6
C/2023 R1 (PANSTARRS),h,04/14.0180/2026,149.3143,62.5483,144.3036,1.000840,3.569609,2000,6.0,4.0
# From MPEC 2023-XP6
C/2023 R2 (PANSTARRS),h,08/12.1099/2024,30.7101,188.9522,337.2416,1.000554,0.905458,2000,10.5,4.0
# From MPEC 2023-UR6
A/2023 R3,e,12.0864,347.3529,86.8921,683.2557,0.0000552,0.99801311,0.0000,12/18.1833/2023,2000,g 20.0,22.0
# From MPEC 2023-XP6
C/2023 RN3 (ATLAS),e,10.3580,207.0674,130.3364,10.15322,0.0304648,0.49053097,10.0429,12/14.0/2023,2000,g  7.5,4.0
# From MPEC 2023-XP6
P/2023 S1,e,9.1467,317.5494,179.8804,3.855658,0.1301836,0.32070720,303.0862,12/14.0/2023,2000,g 11.5,4.0
# From MPEC 2023-XP6
C/2023 S2 (ATLAS),e,20.4855,230.5617,78.1107,150.7460,0.0005325,0.99291707,0.0000,10/15.3785/2023,2000,g 15.0,4.0
# From MPEC 2023-XP6
C/2023 S3 (Lemmon),e,140.4984,233.8337,281.5693,28.49927,0.0064782,0.97087024,0.0000,01/19.6226/2024,2000,g 16.0,4.0
# From MPEC 2023-XP6
P/2023 T1 (PANSTARRS),e,6.6087,249.5763,202.8720,4.235618,0.1130652,0.33490420,341.8076,12/14.0/2023,2000,g 14.0,4.0
# From MPEC 2023-XP6
C/2023 T2 (Borisov),e,48.5967,317.5309,111.2024,232.1330,0.0002787,0.99140417,0.0000,12/22.8053/2023,2000,g 14.5,4.0
# From MPEC 2023-XP6
C/2023 T3 (Fuls),e,27.2221,246.0020,302.8464,671.0295,0.0000567,0.99471167,0.0000,01/25.4170/2025,2000,g  8.5,4.0
# From MPEC 2023-XP6
C/2023 U1 (Fuls),e,108.1403,305.8051,255.5306,1405,0.0000187,0.99645907,0.0000,10/12.1933/2024,2000,g  8.0,4.0
# From MPEC 2023-XP6
C/2023 V1 (Lemmon),e,102.0087,15.0253,103.3109,9781,0.0000010,0.99947932,0.0000,07/13.1209/2025,2000,g  8.5,4.0
# From MPEC 2023-XP6
P/2023 V2 (PANSTARRS),e,9.8800,95.4906,330.6119,7.262066,0.0503633,0.57251006,357.3662,12/14.0/2023,2000,g 13.5,4.0
# From MPEC 2023-XP6
C/2023 V3 (PANSTARRS),e,40.2640,91.4775,291.5989,13.24449,0.0204480,0.66235020,2.6444,12/14.0/2023,2000,g 11.5,4.0
# From MPEC 2023-XP6
C/2023 V4 (Camarasa-Duszanowicz),h,05/30.3841/2024,67.1246,66.3311,50.8667,1.000844,1.121561,2000,12.0,4.0
# From MPEC 2023-W26
C/2023 V5 (Leonard),h,12/13.4372/2023,73.9607,31.4431,56.3948,1.028230,0.849133,2000,21.5,4.0
# From MPEC 2023-XP6
P/2023 V6 (PANSTARRS),e,3.9771,190.0416,194.1895,5.347067,0.0797133,0.18019963,28.5820,12/14.0/2023,2000,g 11.5,4.0
# From MPEC 2023-XM5
C/2023 X1 (Leonard),e,110.6274,137.0911,321.8285,53892,0.0000001,0.99998230,0.0000,10/18.2846/2023,2000,g 13.5,3.2
# From MPEC 2023-XM6
C/2023 X2 (Lemmon),h,12/26.1775/2025,76.9740,66.3122,64.4211,1.000403,5.103672,2000,7.0,4.0
# From MPEC 2023-XQ9
P/2023 X3 (PANSTARRS),e,4.4856,62.0187,40.9921,4.251062,0.1124496,0.28740990,345.2956,12/14.0/2023,2000,g 15.5,4.0
# From MPEC 2023-X27
C/2023 X4 (Hogan),e,11.5945,28.7633,100.5439,9.910383,0.0315914,0.63091675,354.8586,12/14.0/2023,2000,g 12.0,4.0
# From  98, 1083
